CCSDS_OMM_VERS = 2.0
CREATION_DATE  = 
ORIGINATOR     = 

OBJECT_NAME    = STARLINK-36659
OBJECT_ID      = 2026-033N
CENTER_NAME    = EARTH
REF_FRAME      = TEME
TIME_SYSTEM    = UTC
MEAN_ELEMENT_THEORY = SGP/SGP4

EPOCH          = 2026-03-17T14:00:01.999872
MEAN_MOTION    = 15.60996441
ECCENTRICITY   = .0001227
INCLINATION    = 42.9997
RA_OF_ASC_NODE = 223.5071
ARG_OF_PERICENTER = 273.6978
MEAN_ANOMALY   = 288.1954

EPHEMERIS_TYPE = 0
CLASSIFICATION_TYPE = U
NORAD_CAT_ID   = 67833
ELEMENT_SET_NO = 999
REV_AT_EPOCH   = 593
BSTAR          = -.25266339E-1
MEAN_MOTION_DOT = -.1925109E-1
MEAN_MOTION_DDOT = 0

CCSDS_OMM_VERS = 2.0
CREATION_DATE  = 
ORIGINATOR     = 

OBJECT_NAME    = STARLINK-36655
OBJECT_ID      = 2026-033P
CENTER_NAME    = EARTH
REF_FRAME      = TEME
TIME_SYSTEM    = UTC
MEAN_ELEMENT_THEORY = SGP/SGP4

EPOCH          = 2026-03-17T14:00:01.999872
MEAN_MOTION    = 15.55544402
ECCENTRICITY   = .00015526
INCLINATION    = 42.9993
RA_OF_ASC_NODE = 223.7730
ARG_OF_PERICENTER = 279.0851
MEAN_ANOMALY   = 175.6780

EPHEMERIS_TYPE = 0
CLASSIFICATION_TYPE = U
NORAD_CAT_ID   = 67834
ELEMENT_SET_NO = 999
REV_AT_EPOCH   = 593
BSTAR          = -.30836836E-1
MEAN_MOTION_DOT = -.1910209E-1
MEAN_MOTION_DDOT = 0

CCSDS_OMM_VERS = 2.0
CREATION_DATE  = 
ORIGINATOR     = 

OBJECT_NAME    = STARLINK-36657
OBJECT_ID      = 2026-033Q
CENTER_NAME    = EARTH
REF_FRAME      = TEME
TIME_SYSTEM    = UTC
MEAN_ELEMENT_THEORY = SGP/SGP4

EPOCH          = 2026-03-17T14:00:01.999872
MEAN_MOTION    = 15.59651294
ECCENTRICITY   = .00012824
INCLINATION    = 42.9995
RA_OF_ASC_NODE = 223.5473
ARG_OF_PERICENTER = 276.0750
MEAN_ANOMALY   = 269.2427

EPHEMERIS_TYPE = 0
CLASSIFICATION_TYPE = U
NORAD_CAT_ID   = 67835
ELEMENT_SET_NO = 999
REV_AT_EPOCH   = 593
BSTAR          = -.26572364E-1
MEAN_MOTION_DOT = -.1922075E-1
MEAN_MOTION_DDOT = 0

CCSDS_OMM_VERS = 2.0
CREATION_DATE  = 
ORIGINATOR     = 

OBJECT_NAME    = STARLINK-36650
OBJECT_ID      = 2026-033R
CENTER_NAME    = EARTH
REF_FRAME      = TEME
TIME_SYSTEM    = UTC
MEAN_ELEMENT_THEORY = SGP/SGP4

EPOCH          = 2026-03-17T14:00:01.999872
MEAN_MOTION    = 15.50790424
ECCENTRICITY   = .00007921
INCLINATION    = 42.9998
RA_OF_ASC_NODE = 224.0138
ARG_OF_PERICENTER = 259.1308
MEAN_ANOMALY   = 97.2405

EPHEMERIS_TYPE = 0
CLASSIFICATION_TYPE = U
NORAD_CAT_ID   = 67836
ELEMENT_SET_NO = 999
REV_AT_EPOCH   = 593
BSTAR          = -.73235172E-2
MEAN_MOTION_DOT = -.411225E-2
MEAN_MOTION_DDOT = 0

CCSDS_OMM_VERS = 2.0
CREATION_DATE  = 
ORIGINATOR     = 

OBJECT_NAME    = STARLINK-36649
OBJECT_ID      = 2026-033S
CENTER_NAME    = EARTH
REF_FRAME      = TEME
TIME_SYSTEM    = UTC
MEAN_ELEMENT_THEORY = SGP/SGP4

EPOCH          = 2026-03-17T14:00:01.999872
MEAN_MOTION    = 15.55120261
ECCENTRICITY   = .00014536
INCLINATION    = 42.9994
RA_OF_ASC_NODE = 223.7640
ARG_OF_PERICENTER = 279.6008
MEAN_ANOMALY   = 178.2021

EPHEMERIS_TYPE = 0
CLASSIFICATION_TYPE = U
NORAD_CAT_ID   = 67837
ELEMENT_SET_NO = 999
REV_AT_EPOCH   = 593
BSTAR          = -.31374785E-1
MEAN_MOTION_DOT = -.1912619E-1
MEAN_MOTION_DDOT = 0

CCSDS_OMM_VERS = 2.0
CREATION_DATE  = 
ORIGINATOR     = 

OBJECT_NAME    = STARLINK-36654
OBJECT_ID      = 2026-033T
CENTER_NAME    = EARTH
REF_FRAME      = TEME
TIME_SYSTEM    = UTC
MEAN_ELEMENT_THEORY = SGP/SGP4

EPOCH          = 2026-03-17T14:00:01.999872
MEAN_MOTION    = 15.53024547
ECCENTRICITY   = .00014326
INCLINATION    = 42.9998
RA_OF_ASC_NODE = 223.8725
ARG_OF_PERICENTER = 270.5158
MEAN_ANOMALY   = 143.2276

EPHEMERIS_TYPE = 0
CLASSIFICATION_TYPE = U
NORAD_CAT_ID   = 67838
ELEMENT_SET_NO = 999
REV_AT_EPOCH   = 593
BSTAR          = -.28732158E-1
MEAN_MOTION_DOT = -.1651018E-1
MEAN_MOTION_DDOT = 0

CCSDS_OMM_VERS = 2.0
CREATION_DATE  = 
ORIGINATOR     = 

OBJECT_NAME    = STARLINK-36652
OBJECT_ID      = 2026-033U
CENTER_NAME    = EARTH
REF_FRAME      = TEME
TIME_SYSTEM    = UTC
MEAN_ELEMENT_THEORY = SGP/SGP4

EPOCH          = 2026-03-17T14:00:01.999872
MEAN_MOTION    = 15.51000831
ECCENTRICITY   = .00012228
INCLINATION    = 42.9995
RA_OF_ASC_NODE = 223.9693
ARG_OF_PERICENTER = 259.1035
MEAN_ANOMALY   = 115.2809

EPHEMERIS_TYPE = 0
CLASSIFICATION_TYPE = U
NORAD_CAT_ID   = 67839
ELEMENT_SET_NO = 999
REV_AT_EPOCH   = 593
BSTAR          = -.12344037E-1
MEAN_MOTION_DOT = -.675247E-2
MEAN_MOTION_DDOT = 0

CCSDS_OMM_VERS = 2.0
CREATION_DATE  = 
ORIGINATOR     = 

OBJECT_NAME    = STARLINK-36651
OBJECT_ID      = 2026-033V
CENTER_NAME    = EARTH
REF_FRAME      = TEME
TIME_SYSTEM    = UTC
MEAN_ELEMENT_THEORY = SGP/SGP4

EPOCH          = 2026-03-17T14:00:01.999872
MEAN_MOTION    = 15.52899201
ECCENTRICITY   = .000195
INCLINATION    = 42.9993
RA_OF_ASC_NODE = 223.8623
ARG_OF_PERICENTER = 271.2040
MEAN_ANOMALY   = 146.6223

EPHEMERIS_TYPE = 0
CLASSIFICATION_TYPE = U
NORAD_CAT_ID   = 67840
ELEMENT_SET_NO = 999
REV_AT_EPOCH   = 593
BSTAR          = -.32006592E-1
MEAN_MOTION_DOT = -.1810852E-1
MEAN_MOTION_DDOT = 0

CCSDS_OMM_VERS = 2.0
CREATION_DATE  = 
ORIGINATOR     = 

OBJECT_NAME    = STARLINK-36656
OBJECT_ID      = 2026-033W
CENTER_NAME    = EARTH
REF_FRAME      = TEME
TIME_SYSTEM    = UTC
MEAN_ELEMENT_THEORY = SGP/SGP4

EPOCH          = 2026-03-17T14:00:01.999872
MEAN_MOTION    = 15.54028813
ECCENTRICITY   = .00015083
INCLINATION    = 42.9990
RA_OF_ASC_NODE = 223.7848
ARG_OF_PERICENTER = 276.2822
MEAN_ANOMALY   = 172.8501

EPHEMERIS_TYPE = 0
CLASSIFICATION_TYPE = U
NORAD_CAT_ID   = 67841
ELEMENT_SET_NO = 999
REV_AT_EPOCH   = 593
BSTAR          = -.32602207E-1
MEAN_MOTION_DOT = -.1909111E-1
MEAN_MOTION_DDOT = 0

CCSDS_OMM_VERS = 2.0
CREATION_DATE  = 
ORIGINATOR     = 

OBJECT_NAME    = STARLINK-36653
OBJECT_ID      = 2026-033X
CENTER_NAME    = EARTH
REF_FRAME      = TEME
TIME_SYSTEM    = UTC
MEAN_ELEMENT_THEORY = SGP/SGP4

EPOCH          = 2026-03-17T14:00:01.999872
MEAN_MOTION    = 15.52986002
ECCENTRICITY   = .0001689
INCLINATION    = 42.9996
RA_OF_ASC_NODE = 223.8355
ARG_OF_PERICENTER = 272.8180
MEAN_ANOMALY   = 155.8818

EPHEMERIS_TYPE = 0
CLASSIFICATION_TYPE = U
NORAD_CAT_ID   = 67842
ELEMENT_SET_NO = 999
REV_AT_EPOCH   = 593
BSTAR          = -.3161632E-1
MEAN_MOTION_DOT = -.1796146E-1
MEAN_MOTION_DDOT = 0

CCSDS_OMM_VERS = 2.0
CREATION_DATE  = 
ORIGINATOR     = 

OBJECT_NAME    = STARLINK-36589
OBJECT_ID      = 2026-033Y
CENTER_NAME    = EARTH
REF_FRAME      = TEME
TIME_SYSTEM    = UTC
MEAN_ELEMENT_THEORY = SGP/SGP4

EPOCH          = 2026-03-17T14:00:01.999872
MEAN_MOTION    = 15.54063590
ECCENTRICITY   = .00015092
INCLINATION    = 42.9996
RA_OF_ASC_NODE = 223.7609
ARG_OF_PERICENTER = 270.2844
MEAN_ANOMALY   = 188.3536

EPHEMERIS_TYPE = 0
CLASSIFICATION_TYPE = U
NORAD_CAT_ID   = 67843
ELEMENT_SET_NO = 999
REV_AT_EPOCH   = 593
BSTAR          = -.32497361E-1
MEAN_MOTION_DOT = -.190586E-1
MEAN_MOTION_DDOT = 0

CCSDS_OMM_VERS = 2.0
CREATION_DATE  = 
ORIGINATOR     = 

OBJECT_NAME    = STARLINK-36598
OBJECT_ID      = 2026-033Z
CENTER_NAME    = EARTH
REF_FRAME      = TEME
TIME_SYSTEM    = UTC
MEAN_ELEMENT_THEORY = SGP/SGP4

EPOCH          = 2026-03-17T14:00:01.999872
MEAN_MOTION    = 15.50483775
ECCENTRICITY   = .00017255
INCLINATION    = 42.9998
RA_OF_ASC_NODE = 223.9517
ARG_OF_PERICENTER = 301.7130
MEAN_ANOMALY   = 79.3164

EPHEMERIS_TYPE = 0
CLASSIFICATION_TYPE = U
NORAD_CAT_ID   = 67844
ELEMENT_SET_NO = 999
REV_AT_EPOCH   = 593
BSTAR          = .5737151E-3
MEAN_MOTION_DOT = .33345E-3
MEAN_MOTION_DDOT = 0

