STARLINK-36659          
1 67833U 26033N   26076.58335648 -.01925109  00000+0 -25266-1 0  9994
2 67833  42.9997 223.5071 0001227 273.6978 288.1954 15.60996441  5932
STARLINK-36655          
1 67834U 26033P   26076.58335648 -.01910209  00000+0 -30837-1 0  9990
2 67834  42.9993 223.7730 0001552 279.0851 175.6780 15.55544402  5931
STARLINK-36657          
1 67835U 26033Q   26076.58335648 -.01922075  00000+0 -26572-1 0  9996
2 67835  42.9995 223.5473 0001282 276.0750 269.2427 15.59651294  5931
STARLINK-36650          
1 67836U 26033R   26076.58335648 -.00411225  00000+0 -73235-2 0  9995
2 67836  42.9998 224.0138 0000792 259.1308  97.2405 15.50790424  5930
STARLINK-36649          
1 67837U 26033S   26076.58335648 -.01912619  00000+0 -31375-1 0  9998
2 67837  42.9994 223.7640 0001453 279.6008 178.2021 15.55120261  5935
STARLINK-36654          
1 67838U 26033T   26076.58335648 -.01651018  00000+0 -28732-1 0  9995
2 67838  42.9998 223.8725 0001432 270.5158 143.2276 15.53024547  5930
STARLINK-36652          
1 67839U 26033U   26076.58335648 -.00675247  00000+0 -12344-1 0  9997
2 67839  42.9995 223.9693 0001222 259.1035 115.2809 15.51000831  5936
STARLINK-36651          
1 67840U 26033V   26076.58335648 -.01810852  00000+0 -32007-1 0  9991
2 67840  42.9993 223.8623 0001950 271.2040 146.6223 15.52899201  5933
STARLINK-36656          
1 67841U 26033W   26076.58335648 -.01909111  00000+0 -32602-1 0  9990
2 67841  42.9990 223.7848 0001508 276.2822 172.8501 15.54028813  5936
STARLINK-36653          
1 67842U 26033X   26076.58335648 -.01796146  00000+0 -31616-1 0  9997
2 67842  42.9996 223.8355 0001689 272.8180 155.8818 15.52986002  5939
STARLINK-36589          
1 67843U 26033Y   26076.58335648 -.01905860  00000+0 -32497-1 0  9991
2 67843  42.9996 223.7609 0001509 270.2844 188.3536 15.54063590  5939
STARLINK-36598          
1 67844U 26033Z   26076.58335648  .00033345  00000+0  57372-3 0  9990
2 67844  42.9998 223.9517 0001725 301.7130  79.3164 15.50483775  5933
